line1,line2,validFromUtcTime
1 00000U 00000E   26001.00000000  .00000000  00000-0  27772-4 0    01,2 00000  88.8733 120.3344 0009899 270.9215 164.0061 13.55248145    03,2026-01-01T00:00:00Z
1 00000U 00000E   26002.00000000  .00000000  00000-0  27772-4 0    02,2 00000  88.8733 120.2198 0009899 268.0120   2.8978 13.55248183    00,2026-01-02T00:00:00Z
